{
  "type": "FeatureCollection",
  "features": [
    {
      "type": "Feature",
      "properties": {
        "norad_id": 36828,
        "name": "BEIDOU-2 IGSO-1 (C06)",
        "group": "beidou",
        "lat": -49.3519283776651,
        "lon": 107.52800500461917,
        "alt_km": 35733.746538922576,
        "timestamp": "2025-12-24T16:52:41.796773+00:00",
        "meta_object_name": "BEIDOU-2 IGSO-1 (C06)",
        "meta_object_id": "2010-036A",
        "meta_epoch": "2025-12-20T21:47:26.739168",
        "meta_mean_motion": 1.00282395,
        "meta_eccentricity": 0.0051798,
        "meta_inclination": 54.2882,
        "meta_ra_of_asc_node": 164.5739,
        "meta_arg_of_pericenter": 215.2932,
        "meta_mean_anomaly": 144.6604,
        "meta_ephemeris_type": 0,
        "meta_classification_type": "U",
        "meta_norad_cat_id": 36828,
        "meta_element_set_no": 999,
        "meta_rev_at_epoch": 5631,
        "meta_bstar": 0,
        "meta_mean_motion_dot": -5.5e-07,
        "meta_mean_motion_ddot": 0,
        "tle_line1": "1 36828U 10036A   25354.90794837 -.00000055  00000+0  00000+0 0  9992",
        "tle_line2": "2 36828  54.2882 164.5739 0051798 215.2932 144.6604  1.00282395 56317"
      },
      "geometry": {
        "type": "Point",
        "coordinates": [
          107.52800500461917,
          -49.3519283776651
        ]
      }
    },
    {
      "type": "Feature",
      "properties": {
        "norad_id": 37210,
        "name": "BEIDOU-2 G4 (C04)",
        "group": "beidou",
        "lat": 3.1429987436690343,
        "lon": 146.60277444660483,
        "alt_km": 35805.83525604875,
        "timestamp": "2025-12-24T16:52:41.796797+00:00",
        "meta_object_name": "BEIDOU-2 G4 (C04)",
        "meta_object_id": "2010-057A",
        "meta_epoch": "2025-12-24T07:55:23.575008",
        "meta_mean_motion": 1.00271678,
        "meta_eccentricity": 0.0010407,
        "meta_inclination": 3.2114,
        "meta_ra_of_asc_node": 69.8943,
        "meta_arg_of_pericenter": 193.8429,
        "meta_mean_anomaly": 108.3027,
        "meta_ephemeris_type": 0,
        "meta_classification_type": "U",
        "meta_norad_cat_id": 37210,
        "meta_element_set_no": 999,
        "meta_rev_at_epoch": 5553,
        "meta_bstar": 0,
        "meta_mean_motion_dot": -9.2e-07,
        "meta_mean_motion_ddot": 0,
        "tle_line1": "1 37210U 10057A   25358.33013397 -.00000092  00000+0  00000+0 0  9998",
        "tle_line2": "2 37210   3.2114  69.8943 0010407 193.8429 108.3027  1.00271678 55534"
      },
      "geometry": {
        "type": "Point",
        "coordinates": [
          146.60277444660483,
          3.1429987436690343
        ]
      }
    },
    {
      "type": "Feature",
      "properties": {
        "norad_id": 37256,
        "name": "BEIDOU-2 IGSO-2 (C07)",
        "group": "beidou",
        "lat": -0.2510607647759793,
        "lon": 94.23044537625474,
        "alt_km": 35617.31850456846,
        "timestamp": "2025-12-24T16:52:41.796813+00:00",
        "meta_object_name": "BEIDOU-2 IGSO-2 (C07)",
        "meta_object_id": "2010-068A",
        "meta_epoch": "2025-12-23T17:03:51.690816",
        "meta_mean_motion": 1.00283101,
        "meta_eccentricity": 0.00485637,
        "meta_inclination": 47.8659,
        "meta_ra_of_asc_node": 274.0149,
        "meta_arg_of_pericenter": 216.3394,
        "meta_mean_anomaly": 326.1369,
        "meta_ephemeris_type": 0,
        "meta_classification_type": "U",
        "meta_norad_cat_id": 37256,
        "meta_element_set_no": 999,
        "meta_rev_at_epoch": 5503,
        "meta_bstar": 0,
        "meta_mean_motion_dot": -1.88e-06,
        "meta_mean_motion_ddot": 0,
        "tle_line1": "1 37256U 10068A   25357.71101494 -.00000188  00000+0  00000+0 0  9993",
        "tle_line2": "2 37256  47.8659 274.0149 0048563 216.3394 326.1369  1.00283101 55034"
      },
      "geometry": {
        "type": "Point",
        "coordinates": [
          94.23044537625474,
          -0.2510607647759793
        ]
      }
    },
    {
      "type": "Feature",
      "properties": {
        "norad_id": 37384,
        "name": "BEIDOU-2 IGSO-3 (C08)",
        "group": "beidou",
        "lat": 43.95952970122062,
        "lon": 72.46061339288218,
        "alt_km": 35889.51900961705,
        "timestamp": "2025-12-24T16:52:41.796826+00:00",
        "meta_object_name": "BEIDOU-2 IGSO-3 (C08)",
        "meta_object_id": "2011-013A",
        "meta_epoch": "2025-12-23T13:38:13.451136",
        "meta_mean_motion": 1.00268394,
        "meta_eccentricity": 0.00353473,
        "meta_inclination": 62.1571,
        "meta_ra_of_asc_node": 41.8137,
        "meta_arg_of_pericenter": 187.6149,
        "meta_mean_anomaly": 174.7745,
        "meta_ephemeris_type": 0,
        "meta_classification_type": "U",
        "meta_norad_cat_id": 37384,
        "meta_element_set_no": 999,
        "meta_rev_at_epoch": 5390,
        "meta_bstar": 0,
        "meta_mean_motion_dot": -1.6e-06,
        "meta_mean_motion_ddot": 0,
        "tle_line1": "1 37384U 11013A   25357.56821124 -.00000160  00000+0  00000+0 0  9998",
        "tle_line2": "2 37384  62.1571  41.8137 0035347 187.6149 174.7745  1.00268394 53906"
      },
      "geometry": {
        "type": "Point",
        "coordinates": [
          72.46061339288218,
          43.95952970122062
        ]
      }
    },
    {
      "type": "Feature",
      "properties": {
        "norad_id": 37763,
        "name": "BEIDOU-2 IGSO-4 (C09)",
        "group": "beidou",
        "lat": -54.18724731040798,
        "lon": 86.43915716747182,
        "alt_km": 35343.14311244373,
        "timestamp": "2025-12-24T16:52:41.796839+00:00",
        "meta_object_name": "BEIDOU-2 IGSO-4 (C09)",
        "meta_object_id": "2011-038A",
        "meta_epoch": "2025-12-21T10:06:26.864064",
        "meta_mean_motion": 1.00280083,
        "meta_eccentricity": 0.01491557,
        "meta_inclination": 54.5854,
        "meta_ra_of_asc_node": 167.2693,
        "meta_arg_of_pericenter": 230.0944,
        "meta_mean_anomaly": 299.1265,
        "meta_ephemeris_type": 0,
        "meta_classification_type": "U",
        "meta_norad_cat_id": 37763,
        "meta_element_set_no": 999,
        "meta_rev_at_epoch": 5286,
        "meta_bstar": 0,
        "meta_mean_motion_dot": 5.9e-07,
        "meta_mean_motion_ddot": 0,
        "tle_line1": "1 37763U 11038A   25355.42114426  .00000059  00000+0  00000+0 0  9995",
        "tle_line2": "2 37763  54.5854 167.2693 0149155 230.0944 299.1265  1.00280083 52867"
      },
      "geometry": {
        "type": "Point",
        "coordinates": [
          86.43915716747182,
          -54.18724731040798
        ]
      }
    },
    {
      "type": "Feature",
      "properties": {
        "norad_id": 37948,
        "name": "BEIDOU-2 IGSO-5 (C10)",
        "group": "beidou",
        "lat": 10.732834098120945,
        "lon": 83.89860412618683,
        "alt_km": 35522.303721559474,
        "timestamp": "2025-12-24T16:52:41.796852+00:00",
        "meta_object_name": "BEIDOU-2 IGSO-5 (C10)",
        "meta_object_id": "2011-073A",
        "meta_epoch": "2025-12-23T15:38:27.014784",
        "meta_mean_motion": 1.00288757,
        "meta_eccentricity": 0.01097443,
        "meta_inclination": 47.9999,
        "meta_ra_of_asc_node": 273.7252,
        "meta_arg_of_pericenter": 222.2004,
        "meta_mean_anomaly": 284.7176,
        "meta_ephemeris_type": 0,
        "meta_classification_type": "U",
        "meta_norad_cat_id": 37948,
        "meta_element_set_no": 999,
        "meta_rev_at_epoch": 5137,
        "meta_bstar": 0,
        "meta_mean_motion_dot": -1.38e-06,
        "meta_mean_motion_ddot": 0,
        "tle_line1": "1 37948U 11073A   25357.65170156 -.00000138  00000+0  00000+0 0  9997",
        "tle_line2": "2 37948  47.9999 273.7252 0109744 222.2004 284.7176  1.00288757 51374"
      },
      "geometry": {
        "type": "Point",
        "coordinates": [
          83.89860412618683,
          10.732834098120945
        ]
      }
    },
    {
      "type": "Feature",
      "properties": {
        "norad_id": 38091,
        "name": "BEIDOU-2 G5 (C05)",
        "group": "beidou",
        "lat": -1.3228418225020875,
        "lon": 45.55974841915904,
        "alt_km": 35799.06646243789,
        "timestamp": "2025-12-24T16:52:41.796865+00:00",
        "meta_object_name": "BEIDOU-2 G5 (C05)",
        "meta_object_id": "2012-008A",
        "meta_epoch": "2025-12-24T02:18:38.733696",
        "meta_mean_motion": 1.00269743,
        "meta_eccentricity": 0.00130651,
        "meta_inclination": 3.1357,
        "meta_ra_of_asc_node": 70.6677,
        "meta_arg_of_pericenter": 232.1361,
        "meta_mean_anomaly": 243.4748,
        "meta_ephemeris_type": 0,
        "meta_classification_type": "U",
        "meta_norad_cat_id": 38091,
        "meta_element_set_no": 999,
        "meta_rev_at_epoch": 5061,
        "meta_bstar": 0,
        "meta_mean_motion_dot": 7.7e-07,
        "meta_mean_motion_ddot": 0,
        "tle_line1": "1 38091U 12008A   25358.09628164  .00000077  00000+0  00000+0 0  9993",
        "tle_line2": "2 38091   3.1357  70.6677 0013065 232.1361 243.4748  1.00269743 50614"
      },
      "geometry": {
        "type": "Point",
        "coordinates": [
          45.55974841915904,
          -1.3228418225020875
        ]
      }
    }
  ]
}